{
  "type": "FeatureCollection",
  "features": [
    {
      "type": "Feature",
      "properties": {
        "norad_id": 40362,
        "name": "YAOGAN-26",
        "group": "resource",
        "lat": 82.89752199079658,
        "lon": -104.02806404607382,
        "alt_km": 438.0623759367427,
        "timestamp": "2025-12-05T09:41:18.778721+00:00",
        "meta_object_name": "YAOGAN-26",
        "meta_object_id": "2014-088A",
        "meta_epoch": "2025-12-04T17:41:47.955840",
        "meta_mean_motion": 15.38873591,
        "meta_eccentricity": 0.0007226,
        "meta_inclination": 97.0636,
        "meta_ra_of_asc_node": 339.6993,
        "meta_arg_of_pericenter": 51.5757,
        "meta_mean_anomaly": 308.6137,
        "meta_ephemeris_type": 0,
        "meta_classification_type": "U",
        "meta_norad_cat_id": 40362,
        "meta_element_set_no": 999,
        "meta_rev_at_epoch": 60771,
        "meta_bstar": 0.00089087,
        "meta_mean_motion_dot": 0.00034318,
        "meta_mean_motion_ddot": 0,
        "tle_line1": "1 40362U 14088A   25338.73736060  .00034318  00000+0  89087-3 0  9992",
        "tle_line2": "2 40362  97.0636 339.6993 0007226  51.5757 308.6137 15.38873591607716"
      },
      "geometry": {
        "type": "Point",
        "coordinates": [
          -104.02806404607382,
          82.89752199079658
        ]
      }
    },
    {
      "type": "Feature",
      "properties": {
        "norad_id": 40376,
        "name": "SMAP",
        "group": "resource",
        "lat": 4.383729434187148,
        "lon": 164.8611573162282,
        "alt_km": 684.8484523643829,
        "timestamp": "2025-12-05T09:41:18.778731+00:00",
        "meta_object_name": "SMAP",
        "meta_object_id": "2015-003A",
        "meta_epoch": "2025-12-04T16:28:43.262112",
        "meta_mean_motion": 14.63329196,
        "meta_eccentricity": 0.0001211,
        "meta_inclination": 98.1291,
        "meta_ra_of_asc_node": 343.5266,
        "meta_arg_of_pericenter": 87.2192,
        "meta_mean_anomaly": 272.9149,
        "meta_ephemeris_type": 0,
        "meta_classification_type": "U",
        "meta_norad_cat_id": 40376,
        "meta_element_set_no": 999,
        "meta_rev_at_epoch": 57917,
        "meta_bstar": 0.00021759,
        "meta_mean_motion_dot": 1.076e-05,
        "meta_mean_motion_ddot": 0,
        "tle_line1": "1 40376U 15003A   25338.68661183  .00001076  00000+0  21759-3 0  9999",
        "tle_line2": "2 40376  98.1291 343.5266 0001211  87.2192 272.9149 14.63329196579172"
      },
      "geometry": {
        "type": "Point",
        "coordinates": [
          164.8611573162282,
          4.383729434187148
        ]
      }
    },
    {
      "type": "Feature",
      "properties": {
        "norad_id": 40536,
        "name": "KOMPSAT-3A",
        "group": "resource",
        "lat": -81.77038925165121,
        "lon": 64.48206625520362,
        "alt_km": 444.5389029648177,
        "timestamp": "2025-12-05T09:41:18.778742+00:00",
        "meta_object_name": "KOMPSAT-3A",
        "meta_object_id": "2015-014A",
        "meta_epoch": "2025-12-04T18:31:56.430624",
        "meta_mean_motion": 15.43513231,
        "meta_eccentricity": 0.0003919,
        "meta_inclination": 97.6775,
        "meta_ra_of_asc_node": 312.6816,
        "meta_arg_of_pericenter": 143.69,
        "meta_mean_anomaly": 216.4614,
        "meta_ephemeris_type": 0,
        "meta_classification_type": "U",
        "meta_norad_cat_id": 40536,
        "meta_element_set_no": 999,
        "meta_rev_at_epoch": 59172,
        "meta_bstar": 0.00075233,
        "meta_mean_motion_dot": 0.0003375,
        "meta_mean_motion_ddot": 0,
        "tle_line1": "1 40536U 15014A   25338.77218091  .00033750  00000+0  75233-3 0  9995",
        "tle_line2": "2 40536  97.6775 312.6816 0003919 143.6900 216.4614 15.43513231591729"
      },
      "geometry": {
        "type": "Point",
        "coordinates": [
          64.48206625520362,
          -81.77038925165121
        ]
      }
    },
    {
      "type": "Feature",
      "properties": {
        "norad_id": 40697,
        "name": "SENTINEL-2A",
        "group": "resource",
        "lat": -1.2163947967427726,
        "lon": -128.14265989065538,
        "alt_km": 792.0634406822055,
        "timestamp": "2025-12-05T09:41:18.778752+00:00",
        "meta_object_name": "SENTINEL-2A",
        "meta_object_id": "2015-028A",
        "meta_epoch": "2025-12-04T17:44:24.103968",
        "meta_mean_motion": 14.30822555,
        "meta_eccentricity": 0.0001031,
        "meta_inclination": 98.5701,
        "meta_ra_of_asc_node": 51.3858,
        "meta_arg_of_pericenter": 93.736,
        "meta_mean_anomaly": 266.394,
        "meta_ephemeris_type": 0,
        "meta_classification_type": "U",
        "meta_norad_cat_id": 40697,
        "meta_element_set_no": 999,
        "meta_rev_at_epoch": 54592,
        "meta_bstar": 0.00014392,
        "meta_mean_motion_dot": 3.34e-06,
        "meta_mean_motion_ddot": 0,
        "tle_line1": "1 40697U 15028A   25338.73916787  .00000334  00000+0  14392-3 0  9992",
        "tle_line2": "2 40697  98.5701  51.3858 0001031  93.7360 266.3940 14.30822555545921"
      },
      "geometry": {
        "type": "Point",
        "coordinates": [
          -128.14265989065538,
          -1.2163947967427726
        ]
      }
    },
    {
      "type": "Feature",
      "properties": {
        "norad_id": 40701,
        "name": "GAOFEN-8",
        "group": "resource",
        "lat": -81.93615356135675,
        "lon": -130.29297405510624,
        "alt_km": 461.2960881131612,
        "timestamp": "2025-12-05T09:41:18.778763+00:00",
        "meta_object_name": "GAOFEN-8",
        "meta_object_id": "2015-030A",
        "meta_epoch": "2025-12-04T18:27:23.352192",
        "meta_mean_motion": 15.38141302,
        "meta_eccentricity": 0.001127,
        "meta_inclination": 97.6906,
        "meta_ra_of_asc_node": 156.5234,
        "meta_arg_of_pericenter": 166.001,
        "meta_mean_anomaly": 194.1549,
        "meta_ephemeris_type": 0,
        "meta_classification_type": "U",
        "meta_norad_cat_id": 40701,
        "meta_element_set_no": 999,
        "meta_rev_at_epoch": 58148,
        "meta_bstar": 0.00087907,
        "meta_mean_motion_dot": 0.00033095,
        "meta_mean_motion_ddot": 0,
        "tle_line1": "1 40701U 15030A   25338.76902028  .00033095  00000+0  87907-3 0  9999",
        "tle_line2": "2 40701  97.6906 156.5234 0011270 166.0010 194.1549 15.38141302581489"
      },
      "geometry": {
        "type": "Point",
        "coordinates": [
          -130.29297405510624,
          -81.93615356135675
        ]
      }
    },
    {
      "type": "Feature",
      "properties": {
        "norad_id": 40718,
        "name": "CARBONITE 1 (CBNT-1)",
        "group": "resource",
        "lat": -50.67583135976842,
        "lon": -28.659795281607032,
        "alt_km": 618.9568372269414,
        "timestamp": "2025-12-05T09:41:18.778773+00:00",
        "meta_object_name": "CARBONITE 1 (CBNT-1)",
        "meta_object_id": "2015-032D",
        "meta_epoch": "2025-12-04T18:04:17.981760",
        "meta_mean_motion": 14.82684987,
        "meta_eccentricity": 0.0013912,
        "meta_inclination": 97.6398,
        "meta_ra_of_asc_node": 160.149,
        "meta_arg_of_pericenter": 208.334,
        "meta_mean_anomaly": 151.7119,
        "meta_ephemeris_type": 0,
        "meta_classification_type": "U",
        "meta_norad_cat_id": 40718,
        "meta_element_set_no": 999,
        "meta_rev_at_epoch": 56052,
        "meta_bstar": 0.00060721,
        "meta_mean_motion_dot": 4.856e-05,
        "meta_mean_motion_ddot": 0,
        "tle_line1": "1 40718U 15032D   25338.75298590  .00004856  00000+0  60721-3 0  9998",
        "tle_line2": "2 40718  97.6398 160.1490 0013912 208.3340 151.7119 14.82684987560521"
      },
      "geometry": {
        "type": "Point",
        "coordinates": [
          -28.659795281607032,
          -50.67583135976842
        ]
      }
    },
    {
      "type": "Feature",
      "properties": {
        "norad_id": 40878,
        "name": "YAOGAN-27",
        "group": "resource",
        "lat": 3.5692647786001825,
        "lon": -31.281329511598766,
        "alt_km": 1199.0258357077264,
        "timestamp": "2025-12-05T09:41:18.778783+00:00",
        "meta_object_name": "YAOGAN-27",
        "meta_object_id": "2015-040A",
        "meta_epoch": "2025-12-04T19:04:26.737824",
        "meta_mean_motion": 13.1605972,
        "meta_eccentricity": 0.0007718,
        "meta_inclination": 100.1005,
        "meta_ra_of_asc_node": 328.7744,
        "meta_arg_of_pericenter": 306.2953,
        "meta_mean_anomaly": 53.7448,
        "meta_ephemeris_type": 0,
        "meta_classification_type": "U",
        "meta_norad_cat_id": 40878,
        "meta_element_set_no": 999,
        "meta_rev_at_epoch": 49209,
        "meta_bstar": 9.6059e-05,
        "meta_mean_motion_dot": -6e-08,
        "meta_mean_motion_ddot": 0,
        "tle_line1": "1 40878U 15040A   25338.79475391 -.00000006  00000+0  96059-4 0  9992",
        "tle_line2": "2 40878 100.1005 328.7744 0007718 306.2953  53.7448 13.16059720492091"
      },
      "geometry": {
        "type": "Point",
        "coordinates": [
          -31.281329511598766,
          3.5692647786001825
        ]
      }
    }
  ]
}